OBJECT_NAME,OBJECT_ID,EPOCH,MEAN_MOTION,ECCENTRICITY,INCLINATION,RA_OF_ASC_NODE,ARG_OF_PERICENTER,MEAN_ANOMALY,EPHEMERIS_TYPE,CLASSIFICATION_TYPE,NORAD_CAT_ID,ELEMENT_SET_NO,REV_AT_EPOCH,BSTAR,MEAN_MOTION_DOT,MEAN_MOTION_DDOT
DUBAISAT-1,2009-041B,2026-07-08T20:42:30.033504,14.75160120,.00104179,98.0077,322.8864,9.1871,350.9527,0,U,35682,999,90829,.96115218E-4,.598E-5,0
OCEANSAT-2,2009-051A,2026-07-08T22:21:04.554144,13.99657180,.00169252,98.2318,174.6120,171.6747,188.4704,0,U,35931,999,88237,-.92493727E-4,-.173E-5,0
WORLDVIEW-2 (WV-2),2009-055A,2026-07-08T22:39:38.037600,14.37905770,.00050388,98.4758,263.0973,145.1089,215.0429,0,U,35946,999,87877,.29908825E-4,.47E-6,0
SMOS,2009-059A,2026-07-08T22:35:57.420384,14.39733454,.00011361,98.4428,16.9579,94.8218,265.3100,0,U,36036,999,87658,.66309277E-4,.164E-5,0
YAOGAN-7,2009-069A,2026-07-08T14:48:32.591232,14.78031471,.00239353,98.0044,75.3492,333.3807,26.6172,0,U,36110,999,89279,.54067378E-4,.339E-5,0
TANDEM-X,2010-030A,2026-07-07T11:29:58.986816,15.19154052,.0001887,97.4457,195.8973,94.3019,265.8431,0,U,36605,999,88972,.21566E-4,.386E-5,0
CARTOSAT-2B,2010-035A,2026-07-08T23:51:46.704384,14.78612133,.00124282,97.9941,240.4035,116.9337,243.3145,0,U,36795,999,86307,.23060338E-4,.117E-5,0
YAOGAN-10,2010-038A,2026-07-08T23:31:19.176384,14.85417990,.00017132,97.8975,213.2103,85.1851,3.1034,0,U,36834,999,86044,.17384901E-3,.1444E-4,0
COSMO-SKYMED 4,2010-060A,2026-07-09T12:28:19.081920,14.82145819,.0001507,97.8890,13.7954,94.9762,265.1623,0,U,37216,999,84787,.39564E-4,.263E-5,0
RESOURCESAT-2,2011-015A,2026-07-08T21:47:04.547328,14.21604997,.001122,98.7634,257.1984,188.8952,171.2028,0,U,37387,999,78926,.26425816E-4,.14E-6,0
HAIYANG-2A,2011-043A,2026-07-09T12:55:55.224768,13.73551695,.0003287,99.3405,192.7084,45.5077,314.6340,0,U,37781,999,74972,.6037E-4,.13E-6,0
RASAT,2011-044D,2026-07-08T23:38:19.325760,14.68188872,.00217122,98.0573,281.0498,121.2294,293.2243,0,U,37791,999,79638,.69020997E-4,.35E-5,0
SRMSAT,2011-058D,2026-07-08T08:28:30.297216,14.11579975,.00118782,19.9723,291.3610,76.6616,325.6645,0,U,37841,999,76081,.50022429E-4,.357E-5,0
PLEIADES 1A,2011-076F,2026-07-09T00:30:46.054368,14.58544374,.0001747,98.1966,264.8305,83.0823,39.6482,0,U,38012,999,77517,.21121471E-4,.52E-6,0
ZIYUAN 1-02C (ZY 1-02C),2011-079A,2026-07-09T00:02:56.237856,14.38231872,.00052947,98.4059,256.8540,236.3776,246.4428,0,U,38038,999,76234,.30983834E-4,.51E-6,0
ARIRANG-3 (KOMPSAT-3),2012-025B,2026-07-08T23:58:14.837376,14.62225561,.00065444,98.1181,147.0838,54.9072,305.2742,0,U,38338,999,75453,.66530715E-4,.289E-5,0
EXACTVIEW-1 (ADS-1B),2012-039C,2026-07-08T20:48:45.458784,14.24991005,.00119355,98.9799,307.7494,108.0000,252.2480,0,U,38709,999,72579,.47143471E-4,.64E-6,0
SPOT 6,2012-047A,2026-07-08T22:40:25.702752,14.58535941,.00011536,98.2107,256.9982,81.8254,278.3076,0,U,38755,999,73622,-.163519E-5,-.53E-6,0
PLEIADES 1B,2012-068A,2026-07-08T23:07:10.595712,14.58531307,.00016411,98.1936,264.7150,82.3136,277.8249,0,U,39019,999,72402,-.13014273E-4,-.106E-5,0
GOKTURK 2,2012-073A,2026-07-08T23:37:18.371424,14.75566589,.00009374,97.6819,26.3225,77.6981,282.4334,0,U,39030,999,72772,.13384994E-3,.865E-5,0
LANDSAT 8,2013-008A,2026-07-08T22:19:51.877056,14.57109055,.00013521,98.2292,259.8066,94.2215,265.9138,0,U,39084,999,70106,.54974856E-4,.202E-5,0
SARAL,2013-009A,2026-07-08T23:13:17.139072,14.32894687,.00013251,98.5554,16.2593,183.8102,176.3072,0,U,39086,999,69872,.37223477E-4,.58E-6,0
GAOFEN-1,2013-018A,2026-07-08T22:50:48.015168,14.76513147,.00165489,97.9083,261.5769,191.4096,168.6742,0,U,39150,999,71145,.16953949E-4,.67E-6,0
VNREDSAT 1,2013-021B,2026-07-08T22:43:50.590848,14.64879512,.00016429,97.9067,242.5273,82.0115,278.1275,0,U,39160,999,70347,.37873421E-4,.157E-5,0
ARIRANG-5 (KOMPSAT-5),2013-042A,2026-07-08T23:32:18.275712,15.04518589,.0005459,97.6221,16.3750,73.0738,287.1086,0,U,39227,999,70713,.94944276E-4,.1269E-4,0
SKYSAT-A,2013-066C,2026-07-08T14:51:01.716768,15.13092579,.00199648,97.3804,238.3329,237.3993,122.5311,0,U,39418,999,69172,.13292809E-3,.2299E-4,0
DUBAISAT-2,2013-066D,2026-07-08T22:26:34.397376,15.10343723,.00098762,97.4574,179.5124,326.8769,33.1842,0,U,39419,999,68967,.15232246E-3,.2438E-4,0
GPM-CORE,2014-009C,2026-07-08T21:31:26.634720,15.44994192,.00110744,64.9702,235.3950,259.9514,100.0378,0,U,39574,999,70116,.8813594E-4,.3926E-4,0
SENTINEL-1A,2014-016A,2026-07-08T23:13:10.105248,14.59198675,.00014088,98.1787,197.1820,87.5922,272.5439,0,U,39634,999,65319,-.25667552E-4,-.167E-5,0
KAZEOSAT 1,2014-024A,2026-07-08T22:44:11.432256,14.42035452,.00012832,98.3194,261.8528,82.4234,277.7101,0,U,39731,999,64169,.7014585E-5,-.2E-6,0
