DUBAISAT-1              
1 35682U 09041B   26189.86284761  .00000598  00000+0  96115-4 0  9993
2 35682  98.0077 322.8864 0010417   9.1871 350.9527 14.75160120908295
OCEANSAT-2              
1 35931U 09051A   26189.93130271 -.00000173  00000+0 -92494-4 0  9992
2 35931  98.2318 174.6120 0016925 171.6747 188.4704 13.99657180882370
WORLDVIEW-2 (WV-2)      
1 35946U 09055A   26189.94419025  .00000047  00000+0  29909-4 0  9999
2 35946  98.4758 263.0973 0005038 145.1089 215.0429 14.37905770878777
SMOS                    
1 36036U 09059A   26189.94163681  .00000164  00000+0  66309-4 0  9993
2 36036  98.4428  16.9579 0001136  94.8218 265.3100 14.39733454876589
YAOGAN-7                
1 36110U 09069A   26189.61704388  .00000339  00000+0  54067-4 0  9998
2 36110  98.0044  75.3492 0023935 333.3807  26.6172 14.78031471892792
TANDEM-X                
1 36605U 10030A   26188.47915494  .00000386  00000+0  21566-4 0  9992
2 36605  97.4457 195.8973 0001887  94.3019 265.8431 15.19154052889726
CARTOSAT-2B             
1 36795U 10035A   26189.99429056  .00000117  00000+0  23060-4 0  9992
2 36795  97.9941 240.4035 0012428 116.9337 243.3145 14.78612133863078
YAOGAN-10               
1 36834U 10038A   26189.98008306  .00001444  00000+0  17385-3 0  9995
2 36834  97.8975 213.2103 0001713  85.1851   3.1034 14.85417990860444
COSMO-SKYMED 4          
1 37216U 10060A   26190.51966530  .00000263  00000+0  39564-4 0  9990
2 37216  97.8890  13.7954 0001507  94.9762 265.1623 14.82145819847873
RESOURCESAT-2           
1 37387U 11015A   26189.90769152  .00000014  00000+0  26426-4 0  9999
2 37387  98.7634 257.1984 0011220 188.8952 171.2028 14.21604997789266
HAIYANG-2A              
1 37781U 11043A   26190.53883362  .00000013  00000+0  60370-4 0  9994
2 37781  99.3405 192.7084 0003287  45.5077 314.6340 13.73551695749722
RASAT                   
1 37791U 11044D   26189.98494590  .00000350  00000+0  69021-4 0  9990
2 37791  98.0573 281.0498 0021712 121.2294 293.2243 14.68188872796388
SRMSAT                  
1 37841U 11058D   26189.35312844  .00000357  00000+0  50022-4 0  9991
2 37841  19.9723 291.3610 0011878  76.6616 325.6645 14.11579975760817
PLEIADES 1A             
1 38012U 11076F   26190.02136637  .00000052  00000+0  21121-4 0  9992
2 38012  98.1966 264.8305 0001747  83.0823  39.6482 14.58544374775170
ZIYUAN 1-02C (ZY 1-02C) 
1 38038U 11079A   26190.00203979  .00000051  00000+0  30984-4 0  9991
2 38038  98.4059 256.8540 0005294 236.3776 246.4428 14.38231872762344
ARIRANG-3 (KOMPSAT-3)   
1 38338U 12025B   26189.99878284  .00000289  00000+0  66531-4 0  9999
2 38338  98.1181 147.0838 0006544  54.9072 305.2742 14.62225561754533
EXACTVIEW-1 (ADS-1B)    
1 38709U 12039C   26189.86719281  .00000064  00000+0  47143-4 0  9992
2 38709  98.9799 307.7494 0011935 108.0000 252.2480 14.24991005725790
SPOT 6                  
1 38755U 12047A   26189.94474193 -.00000053  00000+0 -16352-5 0  9990
2 38755  98.2107 256.9982 0001153  81.8254 278.3076 14.58535941736224
PLEIADES 1B             
1 39019U 12068A   26189.96331708 -.00000106  00000+0 -13014-4 0  9993
2 39019  98.1936 264.7150 0001641  82.3136 277.8249 14.58531307724021
GOKTURK 2               
1 39030U 12073A   26189.98424041  .00000865  00000+0  13385-3 0  9997
2 39030  97.6819  26.3225 0000937  77.6981 282.4334 14.75566589727721
LANDSAT 8               
1 39084U 13008A   26189.93046154  .00000202  00000+0  54975-4 0  9991
2 39084  98.2292 259.8066 0001352  94.2215 265.9138 14.57109055701063
SARAL                   
1 39086U 13009A   26189.96755948  .00000058  00000+0  37223-4 0  9991
2 39086  98.5554  16.2593 0001325 183.8102 176.3072 14.32894687698724
GAOFEN-1                
1 39150U 13018A   26189.95194462  .00000067  00000+0  16954-4 0  9998
2 39150  97.9083 261.5769 0016548 191.4096 168.6742 14.76513147711457
VNREDSAT 1              
1 39160U 13021B   26189.94711332  .00000157  00000+0  37873-4 0  9996
2 39160  97.9067 242.5273 0001642  82.0115 278.1275 14.64879512703474
ARIRANG-5 (KOMPSAT-5)   
1 39227U 13042A   26189.98076708  .00001269  00000+0  94944-4 0  9995
2 39227  97.6221  16.3750 0005459  73.0738 287.1086 15.04518589707131
SKYSAT-A                
1 39418U 13066C   26189.61876987  .00002299  00000+0  13293-3 0  9991
2 39418  97.3804 238.3329 0019964 237.3993 122.5311 15.13092579691725
DUBAISAT-2              
1 39419U 13066D   26189.93512034  .00002438  00000+0  15232-3 0  9997
2 39419  97.4574 179.5124 0009876 326.8769  33.1842 15.10343723689670
GPM-CORE                
1 39574U 14009C   26189.89683605  .00003926  00000+0  88136-4 0  9992
2 39574  64.9702 235.3950 0011074 259.9514 100.0378 15.44994192701165
SENTINEL-1A             
1 39634U 14016A   26189.96747807 -.00000167  00000+0 -25668-4 0  9997
2 39634  98.1787 197.1820 0001408  87.5922 272.5439 14.59198675653192
KAZEOSAT 1              
1 39731U 14024A   26189.94735454 -.00000020  00000+0  70146-5 0  9996
2 39731  98.3194 261.8528 0001283  82.4234 277.7101 14.42035452641699
